[{"OBJECT_NAME":"SHIYAN-6 02 (SY-6 02)","OBJECT_ID":"2020-043A","EPOCH":"2026-03-09T23:39:34.759872","MEAN_MOTION":14.60858105,"ECCENTRICITY":0.01291304,"INCLINATION":98.1903,"RA_OF_ASC_NODE":81.3443,"ARG_OF_PERICENTER":176.0453,"MEAN_ANOMALY":184.1801,"EPHEMERIS_TYPE":0,"CLASSIFICATION_TYPE":"U","NORAD_CAT_ID":45859,"ELEMENT_SET_NO":999,"REV_AT_EPOCH":30237,"BSTAR":7.5299693e-5,"MEAN_MOTION_DOT":3.6e-6,"MEAN_MOTION_DDOT":0},{"OBJECT_NAME":"COSMOS 2251 DEB","OBJECT_ID":"1993-036AP","EPOCH":"2026-03-09T04:48:19.066752","MEAN_MOTION":14.4473263,"ECCENTRICITY":0.00901098,"INCLINATION":74.0318,"RA_OF_ASC_NODE":334.8475,"ARG_OF_PERICENTER":74.7424,"MEAN_ANOMALY":44.1539,"EPHEMERIS_TYPE":0,"CLASSIFICATION_TYPE":"U","NORAD_CAT_ID":33798,"ELEMENT_SET_NO":999,"REV_AT_EPOCH":89842,"BSTAR":0.00017707557,"MEAN_MOTION_DOT":6.18e-6,"MEAN_MOTION_DDOT":0}]
